0 CZ-4 DEB
1 26152U 99057AN  13281.50330791  .00000401  00000-0  39838-3 0  2238
2 26152 099.1536 299.7168 0532786 267.2642 265.5349 13.34027162659286
0 CZ-4 DEB
1 26152U 99057AN  13283.52790824  .00000456  00000-0  44790-3 0  2243
2 26152 099.1531 301.5373 0532838 262.2557 268.6884 13.34030791659559
0 CZ-4 DEB
1 26152U 99057AN  13285.55319578  .00000488  00000-0  47582-3 0  2259
2 26152 099.1526 303.3587 0532899 257.2451 275.1649 13.34032818659828
0 CZ-4 DEB
1 26152U 99057AN  13287.99714719  .00000741  00000-0  70276-3 0  2264
2 26152 099.1520 305.5563 0532995 251.2011 132.3006 13.34037039660152
0 CZ-4 DEB
1 26152U 99057AN  13290.50299190  .00000596  00000-0  57254-3 0  2276
2 26152 099.1519 307.8092 0533042 245.0002 286.7208 13.34040719660480
0 CZ-4 DEB
1 26152U 99057AN  13292.52545360  .00000607  00000-0  58206-3 0  2285
2 26152 099.1520 309.6272 0533110 239.9975 279.6970 13.34042840660753
0 CZ-4 DEB
1 26152U 99057AN  13294.61940043  .00000607  00000-0  58181-3 0  2297
2 26152 099.1521 311.5096 0533196 234.8211 255.9969 13.34045947661039
